{
  "norad_id": 63318,
  "name": "STARLINK-11593 [DTC]",
  "history": [
    {
      "epoch": "2026-03-28T12:44:10.531680",
      "apogee_km": 357.84033036381607,
      "perigee_km": 354.70680912571333,
      "latitude_deg": -36.48512456662417,
      "longitude_deg": -157.25496479985304,
      "semi_major_axis_km": 6734.410569744764,
      "eccentricity": 0.00023265,
      "inclination_deg": 43.0028,
      "raan_deg": 150.7061,
      "arg_perigee_deg": 281.044,
      "mean_anomaly_deg": 79.0166,
      "mean_motion_rev_day": 15.70917497
    }
  ]
}